{
  "norad_id": 68714,
  "name": "STARLINK-37225",
  "history": [
    {
      "epoch": "2026-04-23T16:59:07.973088Z",
      "apogee_km": 317.64351794529557,
      "perigee_km": 314.67125123853657,
      "latitude_deg": -4.0066241084164885e-05,
      "longitude_deg": 88.67335560834942,
      "height_km": 315.9831310880439,
      "semi_major_axis_km": 6694.294384591916,
      "eccentricity": 0.000222,
      "inclination_deg": 53.1605,
      "raan_deg": 195.2077,
      "arg_perigee_deg": 42.6323,
      "mean_anomaly_deg": 317.4873,
      "mean_motion_rev_day": 15.85059436
    },
    {
      "epoch": "2026-04-25T08:00:01.999008Z",
      "apogee_km": 328.48498083416416,
      "perigee_km": 327.37982059692604,
      "latitude_deg": -52.84148685866099,
      "longitude_deg": 113.08824857242288,
      "height_km": 346.7925649590572,
      "semi_major_axis_km": 6706.069400715545,
      "eccentricity": 8.24e-05,
      "inclination_deg": 53.1602,
      "raan_deg": 187.0492,
      "arg_perigee_deg": 102.6523,
      "mean_anomaly_deg": 160.9274,
      "mean_motion_rev_day": 15.80886521
    },
    {
      "epoch": "2026-04-26T16:16:11.590752Z",
      "apogee_km": 328.406037610177,
      "perigee_km": 326.8081929023938,
      "latitude_deg": 4.0177344942232436e-05,
      "longitude_deg": 81.58409693795473,
      "height_km": 329.09580167244974,
      "semi_major_axis_km": 6705.744115256285,
      "eccentricity": 0.00011914,
      "inclination_deg": 53.1599,
      "raan_deg": 180.311,
      "arg_perigee_deg": 135.552,
      "mean_anomaly_deg": 224.5599,
      "mean_motion_rev_day": 15.81001552
    },
    {
      "epoch": "2026-04-27T20:00:03.000384Z",
      "apogee_km": 328.72998800630376,
      "perigee_km": 327.3377869300657,
      "latitude_deg": 52.223833738883094,
      "longitude_deg": 124.69272536107798,
      "height_km": 333.64165378248157,
      "semi_major_axis_km": 6706.170887468184,
      "eccentricity": 0.0001038,
      "inclination_deg": 53.1593,
      "raan_deg": 174.521,
      "arg_perigee_deg": 97.4829,
      "mean_anomaly_deg": 2.2619,
      "mean_motion_rev_day": 15.80850635
    },
    {
      "epoch": "2026-04-28T20:00:01.000224Z",
      "apogee_km": 328.53904834813784,
      "perigee_km": 327.276970677347,
      "latitude_deg": 26.697762421456147,
      "longitude_deg": 34.705609601033636,
      "height_km": 328.692214377326,
      "semi_major_axis_km": 6706.045009512742,
      "eccentricity": 9.41e-05,
      "inclination_deg": 53.1588,
      "raan_deg": 169.5098,
      "arg_perigee_deg": 81.5756,
      "mean_anomaly_deg": 312.4778,
      "mean_motion_rev_day": 15.80895146
    },
    {
      "epoch": "2026-04-29T20:08:00.684384Z",
      "apogee_km": 328.9238988000243,
      "perigee_km": 326.33413196488345,
      "latitude_deg": 1.6457834593906736e-06,
      "longitude_deg": 4.672704488359739,
      "height_km": 327.97282405288894,
      "semi_major_axis_km": 6705.766015382454,
      "eccentricity": 0.0001931,
      "inclination_deg": 53.1584,
      "raan_deg": 164.4698,
      "arg_perigee_deg": 63.7274,
      "mean_anomaly_deg": 296.3947,
      "mean_motion_rev_day": 15.80993807
    },
    {
      "epoch": "2026-04-30T14:20:26.202336Z",
      "apogee_km": 328.57130623966805,
      "perigee_km": 326.9938057233185,
      "latitude_deg": -1.0958583133508868e-05,
      "longitude_deg": 87.01703151169356,
      "height_km": 328.5028898789743,
      "semi_major_axis_km": 6705.919555981493,
      "eccentricity": 0.00011762,
      "inclination_deg": 53.1584,
      "raan_deg": 160.6682,
      "arg_perigee_deg": 75.5034,
      "mean_anomaly_deg": 284.6119,
      "mean_motion_rev_day": 15.80939509
    },
    {
      "epoch": "2026-05-02T10:20:29.607936Z",
      "apogee_km": 328.6153413945367,
      "perigee_km": 327.0917403436515,
      "latitude_deg": -1.2434125767969142e-05,
      "longitude_deg": 136.00728327729155,
      "height_km": 328.24233111276084,
      "semi_major_axis_km": 6705.990540869094,
      "eccentricity": 0.0001136,
      "inclination_deg": 53.1576,
      "raan_deg": 151.4797,
      "arg_perigee_deg": 45.9863,
      "mean_anomaly_deg": 314.1253,
      "mean_motion_rev_day": 15.80914407
    },
    {
      "epoch": "2026-05-03T13:39:07.864128Z",
      "apogee_km": 328.4187965508454,
      "perigee_km": 326.9488806230265,
      "latitude_deg": -4.8162577718896025e-06,
      "longitude_deg": 79.523077588054,
      "height_km": 328.64733122348724,
      "semi_major_axis_km": 6705.820838586936,
      "eccentricity": 0.0001096,
      "inclination_deg": 53.1573,
      "raan_deg": 145.7765,
      "arg_perigee_deg": 93.5704,
      "mean_anomaly_deg": 266.5444,
      "mean_motion_rev_day": 15.80974419
    },
    {
      "epoch": "2026-05-04T18:28:49.798848Z",
      "apogee_km": 329.3150043151991,
      "perigee_km": 325.99831877020006,
      "latitude_deg": -2.819987061125072e-05,
      "longitude_deg": -0.10550871768294498,
      "height_km": 328.2733471613481,
      "semi_major_axis_km": 6705.793661542699,
      "eccentricity": 0.0002473,
      "inclination_deg": 53.157,
      "raan_deg": 139.7566,
      "arg_perigee_deg": 79.6092,
      "mean_anomaly_deg": 280.5209,
      "mean_motion_rev_day": 15.8098403
    },
    {
      "epoch": "2026-05-05T14:12:15.492672Z",
      "apogee_km": 327.85694079894347,
      "perigee_km": 327.2775679513661,
      "latitude_deg": 4.4919463776007786e-05,
      "longitude_deg": 59.108157214951255,
      "height_km": 328.7753874956403,
      "semi_major_axis_km": 6705.704254375155,
      "eccentricity": 4.32e-05,
      "inclination_deg": 53.1569,
      "raan_deg": 135.6373,
      "arg_perigee_deg": 183.8726,
      "mean_anomaly_deg": 176.2294,
      "mean_motion_rev_day": 15.81015649
    },
    {
      "epoch": "2026-05-06T12:57:50.100480Z",
      "apogee_km": 328.20469531417893,
      "perigee_km": 327.1072252383001,
      "latitude_deg": 1.8494095169646025e-05,
      "longitude_deg": 72.02683058841114,
      "height_km": 328.44413386695834,
      "semi_major_axis_km": 6705.792960276239,
      "eccentricity": 8.183e-05,
      "inclination_deg": 53.1572,
      "raan_deg": 130.8849,
      "arg_perigee_deg": 76.3025,
      "mean_anomaly_deg": 283.8089,
      "mean_motion_rev_day": 15.80984278
    },
    {
      "epoch": "2026-05-07T19:18:32.660352Z",
      "apogee_km": 328.37962255060665,
      "perigee_km": 326.88960009856964,
      "latitude_deg": -4.305314872626042e-06,
      "longitude_deg": -30.73285498762748,
      "height_km": 328.9966156686601,
      "semi_major_axis_km": 6705.771611324588,
      "eccentricity": 0.0001111,
      "inclination_deg": 53.1572,
      "raan_deg": 124.5488,
      "arg_perigee_deg": 126.5838,
      "mean_anomaly_deg": 233.5287,
      "mean_motion_rev_day": 15.80991828
    },
    {
      "epoch": "2026-05-08T19:35:06.331200Z",
      "apogee_km": 328.41318001064155,
      "perigee_km": 327.2020864098831,
      "latitude_deg": -1.3683410641882637e-05,
      "longitude_deg": -40.9397408523765,
      "height_km": 329.2339906157294,
      "semi_major_axis_km": 6705.944633210262,
      "eccentricity": 9.03e-05,
      "inclination_deg": 53.1574,
      "raan_deg": 119.4792,
      "arg_perigee_deg": 147.0016,
      "mean_anomaly_deg": 213.1063,
      "mean_motion_rev_day": 15.80930641
    },
    {
      "epoch": "2026-05-09T18:20:40.240032Z",
      "apogee_km": 327.9941778238126,
      "perigee_km": 327.5287884690815,
      "latitude_deg": 2.230308480467896e-05,
      "longitude_deg": -28.017898994559367,
      "height_km": 328.8702584035947,
      "semi_major_axis_km": 6705.898483146447,
      "eccentricity": 3.47e-05,
      "inclination_deg": 53.1576,
      "raan_deg": 114.727,
      "arg_perigee_deg": 144.6909,
      "mean_anomaly_deg": 215.4137,
      "mean_motion_rev_day": 15.80946961
    },
    {
      "epoch": "2026-05-10T18:37:14.380032Z",
      "apogee_km": 328.45076009062814,
      "perigee_km": 326.68581845849167,
      "latitude_deg": 2.5235083638535227e-05,
      "longitude_deg": -38.2265341128989,
      "height_km": 329.29441069425286,
      "semi_major_axis_km": 6705.70528927456,
      "eccentricity": 0.0001316,
      "inclination_deg": 53.1572,
      "raan_deg": 109.6576,
      "arg_perigee_deg": 156.2405,
      "mean_anomaly_deg": 203.8679,
      "mean_motion_rev_day": 15.81015283
    },
    {
      "epoch": "2026-05-11T08:16:33.833856Z",
      "apogee_km": 328.4518581157172,
      "perigee_km": 327.13669087416383,
      "latitude_deg": -1.9240426554618052e-05,
      "longitude_deg": 113.53036737642812,
      "height_km": 329.0066438522884,
      "semi_major_axis_km": 6705.93127449494,
      "eccentricity": 9.806e-05,
      "inclination_deg": 53.1572,
      "raan_deg": 106.8064,
      "arg_perigee_deg": 116.5949,
      "mean_anomaly_deg": 243.5174,
      "mean_motion_rev_day": 15.80935365
    },
    {
      "epoch": "2026-05-12T20:41:25.839168Z",
      "apogee_km": 328.52141303191274,
      "perigee_km": 327.0648850035468,
      "latitude_deg": -1.5788879676803323e-05,
      "longitude_deg": -81.78730663954897,
      "height_km": 328.9969962705244,
      "semi_major_axis_km": 6705.9301490177295,
      "eccentricity": 0.0001086,
      "inclination_deg": 53.1568,
      "raan_deg": 99.2009,
      "arg_perigee_deg": 113.1295,
      "mean_anomaly_deg": 246.9842,
      "mean_motion_rev_day": 15.80935763
    },
    {
      "epoch": "2026-05-13T20:58:02.135712Z",
      "apogee_km": 328.79324966401236,
      "perigee_km": 325.97693038620037,
      "latitude_deg": -2.5860708656773314e-05,
      "longitude_deg": -92.00305975483217,
      "height_km": 329.7110869839575,
      "semi_major_axis_km": 6705.522090025106,
      "eccentricity": 0.00021,
      "inclination_deg": 53.1574,
      "raan_deg": 94.1334,
      "arg_perigee_deg": 182.5687,
      "mean_anomaly_deg": 177.5325,
      "mean_motion_rev_day": 15.81080075
    },
    {
      "epoch": "2026-05-14T06:04:40.876032Z",
      "apogee_km": 333.31125699428867,
      "perigee_km": 331.470693381254,
      "latitude_deg": 3.592149170362807e-06,
      "longitude_deg": 129.0600786554561,
      "height_km": 334.11805375049653,
      "semi_major_axis_km": 6710.527975187771,
      "eccentricity": 0.00013714,
      "inclination_deg": 53.157,
      "raan_deg": 92.2321,
      "arg_perigee_deg": 151.5924,
      "mean_anomaly_deg": 208.5173,
      "mean_motion_rev_day": 15.79311236
    }
  ]
}